{"type": "FeatureCollection", "features": [ {"type": "Feature", "properties": {"norad_id": 33825, "name": "COSMOS 2251 DEB", "group": "cosmos-2251-debris", "lat": -61.86985355073705, "lon": -5.508566438090538, "alt_km": 638.8840703334745, "timestamp": "2025-12-13T03:42:11.664751+00:00", "meta": {"OBJECT_NAME": "COSMOS 2251 DEB", "OBJECT_ID": "1993-036BS", "EPOCH": "2025-12-12T07:06:22.550112", "MEAN_MOTION": 14.69758097, "ECCENTRICITY": 0.00845163, "INCLINATION": 73.9856, "RA_OF_ASC_NODE": 28.6535, "ARG_OF_PERICENTER": 355.7956, "MEAN_ANOMALY": 79.4991, "EPHEMERIS_TYPE": 0, "CLASSIFICATION_TYPE": "U", "NORAD_CAT_ID": 33825, "ELEMENT_SET_NO": 999, "REV_AT_EPOCH": 88873, "BSTAR": 0.0011412196, "MEAN_MOTION_DOT": 7.164e-05, "MEAN_MOTION_DDOT": 0}, "tle": {"line1": "1 33825U 93036BS  25346.29609433  .00007164  00000+0  11412-2 0  9996", "line2": "2 33825  73.9856  28.6535 0084516 355.7956  79.4991 14.69758097888733"}}, "geometry": {"type": "Point", "coordinates": [-5.508566438090538, -61.86985355073705]}}, {"type": "Feature", "properties": {"norad_id": 33826, "name": "COSMOS 2251 DEB", "group": "cosmos-2251-debris", "lat": 20.921463644116173, "lon": -137.17350529382406, "alt_km": 693.9389759106398, "timestamp": "2025-12-13T03:42:11.664762+00:00", "meta": {"OBJECT_NAME": "COSMOS 2251 DEB", "OBJECT_ID": "1993-036BT", "EPOCH": "2025-12-12T07:26:59.991648", "MEAN_MOTION": 14.51713916, "ECCENTRICITY": 0.00832139, "INCLINATION": 74.065, "RA_OF_ASC_NODE": 50.6828, "ARG_OF_PERICENTER": 95.1998, "MEAN_ANOMALY": 333.535, "EPHEMERIS_TYPE": 0, "CLASSIFICATION_TYPE": "U", "NORAD_CAT_ID": 33826, "ELEMENT_SET_NO": 999, "REV_AT_EPOCH": 87763, "BSTAR": 0.0016298693, "MEAN_MOTION_DOT": 6.825e-05, "MEAN_MOTION_DDOT": 0}, "tle": {"line1": "1 33826U 93036BT  25346.31041657  .00006825  00000+0  16299-2 0  9999", "line2": "2 33826  74.0650  50.6828 0083213  95.1998 333.5350 14.51713916877634"}}, "geometry": {"type": "Point", "coordinates": [-137.17350529382406, 20.921463644116173]}}, {"type": "Feature", "properties": {"norad_id": 33828, "name": "COSMOS 2251 DEB", "group": "cosmos-2251-debris", "lat": 41.039872816917544, "lon": -108.26111092489491, "alt_km": 741.6467493376749, "timestamp": "2025-12-13T03:42:11.664772+00:00", "meta": {"OBJECT_NAME": "COSMOS 2251 DEB", "OBJECT_ID": "1993-036BV", "EPOCH": "2025-12-12T03:09:15.958080", "MEAN_MOTION": 14.4433018, "ECCENTRICITY": 0.00294565, "INCLINATION": 74.0467, "RA_OF_ASC_NODE": 239.2213, "ARG_OF_PERICENTER": 312.2502, "MEAN_ANOMALY": 174.2235, "EPHEMERIS_TYPE": 0, "CLASSIFICATION_TYPE": "U", "NORAD_CAT_ID": 33828, "ELEMENT_SET_NO": 999, "REV_AT_EPOCH": 88304, "BSTAR": 0.00074486904, "MEAN_MOTION_DOT": 2.551e-05, "MEAN_MOTION_DDOT": 0}, "tle": {"line1": "1 33828U 93036BV  25346.13143470  .00002551  00000+0  74487-3 0  9993", "line2": "2 33828  74.0467 239.2213 0029456 312.2502 174.2235 14.44330180883042"}}, "geometry": {"type": "Point", "coordinates": [-108.26111092489491, 41.039872816917544]}}, {"type": "Feature", "properties": {"norad_id": 33830, "name": "COSMOS 2251 DEB", "group": "cosmos-2251-debris", "lat": -32.48888700522742, "lon": -140.95174639367642, "alt_km": 617.5693430670317, "timestamp": "2025-12-13T03:42:11.664783+00:00", "meta": {"OBJECT_NAME": "COSMOS 2251 DEB", "OBJECT_ID": "1993-036BX", "EPOCH": "2025-12-12T04:11:05.236224", "MEAN_MOTION": 14.76888979, "ECCENTRICITY": 0.00423599, "INCLINATION": 74.0322, "RA_OF_ASC_NODE": 231.4744, "ARG_OF_PERICENTER": 351.6601, "MEAN_ANOMALY": 166.6886, "EPHEMERIS_TYPE": 0, "CLASSIFICATION_TYPE": "U", "NORAD_CAT_ID": 33830, "ELEMENT_SET_NO": 999, "REV_AT_EPOCH": 89463, "BSTAR": 0.001299332, "MEAN_MOTION_DOT": 9.249e-05, "MEAN_MOTION_DDOT": 0}, "tle": {"line1": "1 33830U 93036BX  25346.17436616  .00009249  00000+0  12993-2 0  9991", "line2": "2 33830  74.0322 231.4744 0042359 351.6601 166.6886 14.76888979894635"}}, "geometry": {"type": "Point", "coordinates": [-140.95174639367642, -32.48888700522742]}}, {"type": "Feature", "properties": {"norad_id": 33832, "name": "COSMOS 2251 DEB", "group": "cosmos-2251-debris", "lat": -7.274457490768206, "lon": -152.90720421394894, "alt_km": 701.2735168150521, "timestamp": "2025-12-13T03:42:11.664793+00:00", "meta": {"OBJECT_NAME": "COSMOS 2251 DEB", "OBJECT_ID": "1993-036BZ", "EPOCH": "2025-12-12T02:08:01.251168", "MEAN_MOTION": 14.60633839, "ECCENTRICITY": 0.00249109, "INCLINATION": 74.0538, "RA_OF_ASC_NODE": 211.2164, "ARG_OF_PERICENTER": 242.4436, "MEAN_ANOMALY": 269.9436, "EPHEMERIS_TYPE": 0, "CLASSIFICATION_TYPE": "U", "NORAD_CAT_ID": 33832, "ELEMENT_SET_NO": 999, "REV_AT_EPOCH": 88415, "BSTAR": 0.0020716206, "MEAN_MOTION_DOT": 0.0001011, "MEAN_MOTION_DDOT": 0}, "tle": {"line1": "1 33832U 93036BZ  25346.08890337  .00010110  00000+0  20716-2 0  9998", "line2": "2 33832  74.0538 211.2164 0024910 242.4436 269.9436 14.60633839884154"}}, "geometry": {"type": "Point", "coordinates": [-152.90720421394894, -7.274457490768206]}}, {"type": "Feature", "properties": {"norad_id": 33835, "name": "COSMOS 2251 DEB", "group": "cosmos-2251-debris", "lat": -10.030342846572392, "lon": -76.78488480937328, "alt_km": 658.6013449444008, "timestamp": "2025-12-13T03:42:11.664803+00:00", "meta": {"OBJECT_NAME": "COSMOS 2251 DEB", "OBJECT_ID": "1993-036CC", "EPOCH": "2025-12-12T01:05:42.080352", "MEAN_MOTION": 14.6223936, "ECCENTRICITY": 0.00547685, "INCLINATION": 74.0569, "RA_OF_ASC_NODE": 102.4366, "ARG_OF_PERICENTER": 156.1415, "MEAN_ANOMALY": 320.0367, "EPHEMERIS_TYPE": 0, "CLASSIFICATION_TYPE": "U", "NORAD_CAT_ID": 33835, "ELEMENT_SET_NO": 999, "REV_AT_EPOCH": 88779, "BSTAR": 0.001723019, "MEAN_MOTION_DOT": 8.855e-05, "MEAN_MOTION_DDOT": 0}, "tle": {"line1": "1 33835U 93036CC  25346.04562593  .00008855  00000+0  17230-2 0  9997", "line2": "2 33835  74.0569 102.4366 0054768 156.1415 320.0367 14.62239360887796"}}, "geometry": {"type": "Point", "coordinates": [-76.78488480937328, -10.030342846572392]}}, {"type": "Feature", "properties": {"norad_id": 33836, "name": "COSMOS 2251 DEB", "group": "cosmos-2251-debris", "lat": -56.20988004053204, "lon": 103.52896378655859, "alt_km": 647.0128063116226, "timestamp": "2025-12-13T03:42:11.664813+00:00", "meta": {"OBJECT_NAME": "COSMOS 2251 DEB", "OBJECT_ID": "1993-036CD", "EPOCH": "2025-12-12T06:15:32.699232", "MEAN_MOTION": 14.79608026, "ECCENTRICITY": 0.00225801, "INCLINATION": 73.9971, "RA_OF_ASC_NODE": 259.8957, "ARG_OF_PERICENTER": 113.2886, "MEAN_ANOMALY": 48.8844, "EPHEMERIS_TYPE": 0, "CLASSIFICATION_TYPE": "U", "NORAD_CAT_ID": 33836, "ELEMENT_SET_NO": 999, "REV_AT_EPOCH": 64081, "BSTAR": 0.0020592535, "MEAN_MOTION_DOT": 0.00015504, "MEAN_MOTION_DDOT": 0}, "tle": {"line1": "1 33836U 93036CD  25346.26079513  .00015504  00000+0  20593-2 0  9992", "line2": "2 33836  73.9971 259.8957 0022580 113.2886  48.8844 14.79608026640810"}}, "geometry": {"type": "Point", "coordinates": [103.52896378655859, -56.20988004053204]}}, {"type": "Feature", "properties": {"norad_id": 33837, "name": "COSMOS 2251 DEB", "group": "cosmos-2251-debris", "lat": 4.681904173323767, "lon": -126.52692176497544, "alt_km": 730.2827148506858, "timestamp": "2025-12-13T03:42:11.664823+00:00", "meta": {"OBJECT_NAME": "COSMOS 2251 DEB", "OBJECT_ID": "1993-036CE", "EPOCH": "2025-12-12T07:02:05.671680", "MEAN_MOTION": 14.50700546, "ECCENTRICITY": 0.00358542, "INCLINATION": 74.0132, "RA_OF_ASC_NODE": 56.439, "ARG_OF_PERICENTER": 278.2183, "MEAN_ANOMALY": 81.4911, "EPHEMERIS_TYPE": 0, "CLASSIFICATION_TYPE": "U", "NORAD_CAT_ID": 33837, "ELEMENT_SET_NO": 999, "REV_AT_EPOCH": 88789, "BSTAR": 0.00042404403, "MEAN_MOTION_DOT": 1.652e-05, "MEAN_MOTION_DDOT": 0}, "tle": {"line1": "1 33837U 93036CE  25346.29312120  .00001652  00000+0  42404-3 0  9995", "line2": "2 33837  74.0132  56.4390 0035854 278.2183  81.4911 14.50700546887892"}}, "geometry": {"type": "Point", "coordinates": [-126.52692176497544, 4.681904173323767]}}, {"type": "Feature", "properties": {"norad_id": 33838, "name": "COSMOS 2251 DEB", "group": "cosmos-2251-debris", "lat": 42.4372733999741, "lon": 164.20991413760225, "alt_km": 740.6723651026541, "timestamp": "2025-12-13T03:42:11.664833+00:00", "meta": {"OBJECT_NAME": "COSMOS 2251 DEB", "OBJECT_ID": "1993-036CF", "EPOCH": "2025-12-12T05:06:24.807168", "MEAN_MOTION": 14.48361119, "ECCENTRICITY": 0.00274639, "INCLINATION": 74.0363, "RA_OF_ASC_NODE": 150.8003, "ARG_OF_PERICENTER": 272.751, "MEAN_ANOMALY": 264.5147, "EPHEMERIS_TYPE": 0, "CLASSIFICATION_TYPE": "U", "NORAD_CAT_ID": 33838, "ELEMENT_SET_NO": 999, "REV_AT_EPOCH": 88561, "BSTAR": 0.00068060116, "MEAN_MOTION_DOT": 2.532e-05, "MEAN_MOTION_DDOT": 0}, "tle": {"line1": "1 33838U 93036CF  25346.21278712  .00002532  00000+0  68060-3 0  9990", "line2": "2 33838  74.0363 150.8003 0027463 272.7510 264.5147 14.48361119885618"}}, "geometry": {"type": "Point", "coordinates": [164.20991413760225, 42.4372733999741]}}, {"type": "Feature", "properties": {"norad_id": 33839, "name": "COSMOS 2251 DEB", "group": "cosmos-2251-debris", "lat": -4.49553960543783, "lon": -155.6051521914751, "alt_km": 634.5040414956993, "timestamp": "2025-12-13T03:42:11.664843+00:00", "meta": {"OBJECT_NAME": "COSMOS 2251 DEB", "OBJECT_ID": "1993-036CG", "EPOCH": "2025-12-12T02:11:50.594784", "MEAN_MOTION": 14.64418002, "ECCENTRICITY": 0.00850978, "INCLINATION": 74.039, "RA_OF_ASC_NODE": 207.7255, "ARG_OF_PERICENTER": 319.9398, "MEAN_ANOMALY": 194.5273, "EPHEMERIS_TYPE": 0, "CLASSIFICATION_TYPE": "U", "NORAD_CAT_ID": 33839, "ELEMENT_SET_NO": 999, "REV_AT_EPOCH": 89570, "BSTAR": 0.00037598003, "MEAN_MOTION_DOT": 2.063e-05, "MEAN_MOTION_DDOT": 0}, "tle": {"line1": "1 33839U 93036CG  25346.09155781  .00002063  00000+0  37598-3 0  9998", "line2": "2 33839  74.0390 207.7255 0085097 319.9398 194.5273 14.64418002895700"}}, "geometry": {"type": "Point", "coordinates": [-155.6051521914751, -4.49553960543783]}}]}